{"type": "FeatureCollection", "features": [ {"type": "Feature", "properties": {"norad_id": 34400, "name": "COSMOS 2251 DEB", "group": "cosmos-2251-debris", "lat": -34.518569809666346, "lon": -156.14650383405123, "alt_km": 404.1987984067264, "timestamp": "2025-12-17T15:50:10.176040+00:00", "meta": {"OBJECT_NAME": "COSMOS 2251 DEB", "OBJECT_ID": "1993-036QR", "EPOCH": "2025-12-17T04:06:18.715680", "MEAN_MOTION": 15.5544098, "ECCENTRICITY": 0.00039443, "INCLINATION": 73.9641, "RA_OF_ASC_NODE": 13.5295, "ARG_OF_PERICENTER": 258.1468, "MEAN_ANOMALY": 101.9305, "EPHEMERIS_TYPE": 0, "CLASSIFICATION_TYPE": "U", "NORAD_CAT_ID": 34400, "ELEMENT_SET_NO": 999, "REV_AT_EPOCH": 90043, "BSTAR": 0.0029900144, "MEAN_MOTION_DOT": 0.00209364, "MEAN_MOTION_DDOT": 0}, "tle": {"line1": "1 34400U 93036QR  25351.17104995  .00209364  00000+0  29900-2 0  9999", "line2": "2 34400  73.9641  13.5295 0003944 258.1468 101.9305 15.55440980900438"}}, "geometry": {"type": "Point", "coordinates": [-156.14650383405123, -34.518569809666346]}}, {"type": "Feature", "properties": {"norad_id": 34409, "name": "COSMOS 2251 DEB", "group": "cosmos-2251-debris", "lat": -32.12481452819333, "lon": 127.8288506273312, "alt_km": 757.3693011883561, "timestamp": "2025-12-17T15:50:10.176051+00:00", "meta": {"OBJECT_NAME": "COSMOS 2251 DEB", "OBJECT_ID": "1993-036RA", "EPOCH": "2025-12-17T07:18:44.009856", "MEAN_MOTION": 14.58038593, "ECCENTRICITY": 0.0080061, "INCLINATION": 74.0635, "RA_OF_ASC_NODE": 298.1675, "ARG_OF_PERICENTER": 11.2878, "MEAN_ANOMALY": 139.0784, "EPHEMERIS_TYPE": 0, "CLASSIFICATION_TYPE": "U", "NORAD_CAT_ID": 34409, "ELEMENT_SET_NO": 999, "REV_AT_EPOCH": 89259, "BSTAR": 0.00023060484, "MEAN_MOTION_DOT": 1.077e-05, "MEAN_MOTION_DDOT": 0}, "tle": {"line1": "1 34409U 93036RA  25351.30467604  .00001077  00000+0  23060-3 0  9995", "line2": "2 34409  74.0635 298.1675 0080061  11.2878 139.0784 14.58038593892598"}}, "geometry": {"type": "Point", "coordinates": [127.8288506273312, -32.12481452819333]}}, {"type": "Feature", "properties": {"norad_id": 34410, "name": "COSMOS 2251 DEB", "group": "cosmos-2251-debris", "lat": -67.82898429311498, "lon": 117.0067634754502, "alt_km": 528.9140832011535, "timestamp": "2025-12-17T15:50:10.176061+00:00", "meta": {"OBJECT_NAME": "COSMOS 2251 DEB", "OBJECT_ID": "1993-036RB", "EPOCH": "2025-12-17T04:19:07.978944", "MEAN_MOTION": 15.19353052, "ECCENTRICITY": 0.00217997, "INCLINATION": 73.7373, "RA_OF_ASC_NODE": 252.275, "ARG_OF_PERICENTER": 92.8196, "MEAN_ANOMALY": 58.0638, "EPHEMERIS_TYPE": 0, "CLASSIFICATION_TYPE": "U", "NORAD_CAT_ID": 34410, "ELEMENT_SET_NO": 999, "REV_AT_EPOCH": 89841, "BSTAR": 0.0019200625, "MEAN_MOTION_DOT": 0.00041046, "MEAN_MOTION_DDOT": 0}, "tle": {"line1": "1 34410U 93036RB  25351.17995346  .00041046  00000+0  19201-2 0  9992", "line2": "2 34410  73.7373 252.2750 0021799  92.8196  58.0638 15.19353052898414"}}, "geometry": {"type": "Point", "coordinates": [117.0067634754502, -67.82898429311498]}}, {"type": "Feature", "properties": {"norad_id": 34412, "name": "COSMOS 2251 DEB", "group": "cosmos-2251-debris", "lat": -48.607072325669066, "lon": 154.42240631134615, "alt_km": 874.4924083774913, "timestamp": "2025-12-17T15:50:10.176072+00:00", "meta": {"OBJECT_NAME": "COSMOS 2251 DEB", "OBJECT_ID": "1993-036RD", "EPOCH": "2025-12-16T22:11:15.590400", "MEAN_MOTION": 14.47183613, "ECCENTRICITY": 0.01873009, "INCLINATION": 73.9482, "RA_OF_ASC_NODE": 316.739, "ARG_OF_PERICENTER": 50.8456, "MEAN_ANOMALY": 310.9177, "EPHEMERIS_TYPE": 0, "CLASSIFICATION_TYPE": "U", "NORAD_CAT_ID": 34412, "ELEMENT_SET_NO": 999, "REV_AT_EPOCH": 87711, "BSTAR": 0.0011553143, "MEAN_MOTION_DOT": 5.23e-05, "MEAN_MOTION_DDOT": 0}, "tle": {"line1": "1 34412U 93036RD  25350.92448600  .00005230  00000+0  11553-2 0  9999", "line2": "2 34412  73.9482 316.7390 0187300  50.8456 310.9177 14.47183613877115"}}, "geometry": {"type": "Point", "coordinates": [154.42240631134615, -48.607072325669066]}}, {"type": "Feature", "properties": {"norad_id": 34413, "name": "COSMOS 2251 DEB", "group": "cosmos-2251-debris", "lat": 42.52681425142607, "lon": -88.83158978917054, "alt_km": 771.4412668133973, "timestamp": "2025-12-17T15:50:10.176083+00:00", "meta": {"OBJECT_NAME": "COSMOS 2251 DEB", "OBJECT_ID": "1993-036RE", "EPOCH": "2025-12-17T04:34:37.745760", "MEAN_MOTION": 14.29132972, "ECCENTRICITY": 0.00909664, "INCLINATION": 74.0307, "RA_OF_ASC_NODE": 256.7935, "ARG_OF_PERICENTER": 332.4443, "MEAN_ANOMALY": 178.6807, "EPHEMERIS_TYPE": 0, "CLASSIFICATION_TYPE": "U", "NORAD_CAT_ID": 34413, "ELEMENT_SET_NO": 999, "REV_AT_EPOCH": 87194, "BSTAR": 0.0010878624, "MEAN_MOTION_DOT": 2.86e-05, "MEAN_MOTION_DDOT": 0}, "tle": {"line1": "1 34413U 93036RE  25351.19071465  .00002860  00000+0  10879-2 0  9997", "line2": "2 34413  74.0307 256.7935 0090966 332.4443 178.6807 14.29132972871944"}}, "geometry": {"type": "Point", "coordinates": [-88.83158978917054, 42.52681425142607]}}, {"type": "Feature", "properties": {"norad_id": 34420, "name": "COSMOS 2251 DEB", "group": "cosmos-2251-debris", "lat": 65.41307463052003, "lon": -124.2930676267042, "alt_km": 679.0323313082063, "timestamp": "2025-12-17T15:50:10.176093+00:00", "meta": {"OBJECT_NAME": "COSMOS 2251 DEB", "OBJECT_ID": "1993-036RM", "EPOCH": "2025-12-17T07:15:25.398720", "MEAN_MOTION": 14.6831139, "ECCENTRICITY": 0.01064532, "INCLINATION": 74.0333, "RA_OF_ASC_NODE": 95.1336, "ARG_OF_PERICENTER": 215.1901, "MEAN_ANOMALY": 166.1549, "EPHEMERIS_TYPE": 0, "CLASSIFICATION_TYPE": "U", "NORAD_CAT_ID": 34420, "ELEMENT_SET_NO": 999, "REV_AT_EPOCH": 89837, "BSTAR": 0.00020467762, "MEAN_MOTION_DOT": 1.251e-05, "MEAN_MOTION_DDOT": 0}, "tle": {"line1": "1 34420U 93036RM  25351.30237730  .00001251  00000+0  20468-3 0  9996", "line2": "2 34420  74.0333  95.1336 0106453 215.1901 166.1549 14.68311390898373"}}, "geometry": {"type": "Point", "coordinates": [-124.2930676267042, 65.41307463052003]}}, {"type": "Feature", "properties": {"norad_id": 34425, "name": "COSMOS 2251 DEB", "group": "cosmos-2251-debris", "lat": 73.90990005999292, "lon": 128.5195830983149, "alt_km": 676.371606309418, "timestamp": "2025-12-17T15:50:10.176104+00:00", "meta": {"OBJECT_NAME": "COSMOS 2251 DEB", "OBJECT_ID": "1993-036RS", "EPOCH": "2025-12-17T07:13:22.545696", "MEAN_MOTION": 14.62154506, "ECCENTRICITY": 0.00245637, "INCLINATION": 74.0201, "RA_OF_ASC_NODE": 45.7741, "ARG_OF_PERICENTER": 171.0537, "MEAN_ANOMALY": 189.1073, "EPHEMERIS_TYPE": 0, "CLASSIFICATION_TYPE": "U", "NORAD_CAT_ID": 34425, "ELEMENT_SET_NO": 999, "REV_AT_EPOCH": 88807, "BSTAR": 0.00040266424, "MEAN_MOTION_DOT": 2.004e-05, "MEAN_MOTION_DDOT": 0}, "tle": {"line1": "1 34425U 93036RS  25351.30095539  .00002004  00000+0  40266-3 0  9995", "line2": "2 34425  74.0201  45.7741 0024563 171.0537 189.1073 14.62154506888070"}}, "geometry": {"type": "Point", "coordinates": [128.5195830983149, 73.90990005999292]}}, {"type": "Feature", "properties": {"norad_id": 34429, "name": "COSMOS 2251 DEB", "group": "cosmos-2251-debris", "lat": 47.50040381361945, "lon": -40.9940638696526, "alt_km": 435.35725807763447, "timestamp": "2025-12-17T15:50:10.176114+00:00", "meta": {"OBJECT_NAME": "COSMOS 2251 DEB", "OBJECT_ID": "1993-036RW", "EPOCH": "2025-12-16T21:09:46.432224", "MEAN_MOTION": 15.43304434, "ECCENTRICITY": 0.0009294, "INCLINATION": 73.9686, "RA_OF_ASC_NODE": 158.9908, "ARG_OF_PERICENTER": 358.1134, "MEAN_ANOMALY": 130.3509, "EPHEMERIS_TYPE": 0, "CLASSIFICATION_TYPE": "U", "NORAD_CAT_ID": 34429, "ELEMENT_SET_NO": 999, "REV_AT_EPOCH": 89512, "BSTAR": 0.0042323599, "MEAN_MOTION_DOT": 0.00193574, "MEAN_MOTION_DDOT": 0}, "tle": {"line1": "1 34429U 93036RW  25350.88178741  .00193574  00000+0  42324-2 0  9997", "line2": "2 34429  73.9686 158.9908 0009294 358.1134 130.3509 15.43304434895129"}}, "geometry": {"type": "Point", "coordinates": [-40.9940638696526, 47.50040381361945]}}, {"type": "Feature", "properties": {"norad_id": 34430, "name": "COSMOS 2251 DEB", "group": "cosmos-2251-debris", "lat": -11.264145954844658, "lon": 117.54852552251431, "alt_km": 806.2985440370257, "timestamp": "2025-12-17T15:50:10.176125+00:00", "meta": {"OBJECT_NAME": "COSMOS 2251 DEB", "OBJECT_ID": "1993-036RX", "EPOCH": "2025-12-17T06:36:35.995968", "MEAN_MOTION": 14.39647288, "ECCENTRICITY": 0.00605227, "INCLINATION": 74.0519, "RA_OF_ASC_NODE": 294.9926, "ARG_OF_PERICENTER": 3.4907, "MEAN_ANOMALY": 356.6657, "EPHEMERIS_TYPE": 0, "CLASSIFICATION_TYPE": "U", "NORAD_CAT_ID": 34430, "ELEMENT_SET_NO": 999, "REV_AT_EPOCH": 88020, "BSTAR": 0.00040733095, "MEAN_MOTION_DOT": 1.275e-05, "MEAN_MOTION_DDOT": 0}, "tle": {"line1": "1 34430U 93036RX  25351.27541662  .00001275  00000+0  40733-3 0  9998", "line2": "2 34430  74.0519 294.9926 0060522   3.4907 356.6657 14.39647288880209"}}, "geometry": {"type": "Point", "coordinates": [117.54852552251431, -11.264145954844658]}}, {"type": "Feature", "properties": {"norad_id": 34431, "name": "COSMOS 2251 DEB", "group": "cosmos-2251-debris", "lat": -72.25883086821507, "lon": 49.48174490552217, "alt_km": 820.2470773448858, "timestamp": "2025-12-17T15:50:10.176135+00:00", "meta": {"OBJECT_NAME": "COSMOS 2251 DEB", "OBJECT_ID": "1993-036RY", "EPOCH": "2025-12-16T21:48:51.430176", "MEAN_MOTION": 14.28788848, "ECCENTRICITY": 0.00681054, "INCLINATION": 74.0737, "RA_OF_ASC_NODE": 167.6526, "ARG_OF_PERICENTER": 152.255, "MEAN_ANOMALY": 208.226, "EPHEMERIS_TYPE": 0, "CLASSIFICATION_TYPE": "U", "NORAD_CAT_ID": 34431, "ELEMENT_SET_NO": 999, "REV_AT_EPOCH": 87202, "BSTAR": 0.00056424612, "MEAN_MOTION_DOT": 1.432e-05, "MEAN_MOTION_DDOT": 0}, "tle": {"line1": "1 34431U 93036RY  25350.90892859  .00001432  00000+0  56425-3 0  9995", "line2": "2 34431  74.0737 167.6526 0068105 152.2550 208.2260 14.28788848872025"}}, "geometry": {"type": "Point", "coordinates": [49.48174490552217, -72.25883086821507]}}]}